{
  "type": "FeatureCollection",
  "features": [
    {
      "type": "Feature",
      "properties": {
        "norad_id": 22675,
        "name": "COSMOS 2251",
        "group": "cosmos-2251-debris",
        "lat": -39.06175499541912,
        "lon": -46.95524056594451,
        "alt_km": 787.5427403677131,
        "timestamp": "2025-12-06T22:38:43.121393+00:00",
        "meta_object_name": "COSMOS 2251",
        "meta_object_id": "1993-036A",
        "meta_epoch": "2025-12-06T11:06:32.435424",
        "meta_mean_motion": 14.33201878,
        "meta_eccentricity": 0.00237685,
        "meta_inclination": 74.0393,
        "meta_ra_of_asc_node": 327.3529,
        "meta_arg_of_pericenter": 51.5868,
        "meta_mean_anomaly": 308.7413,
        "meta_ephemeris_type": 0,
        "meta_classification_type": "U",
        "meta_norad_cat_id": 22675,
        "meta_element_set_no": 999,
        "meta_rev_at_epoch": 69683,
        "meta_bstar": 9.9744858e-05,
        "meta_mean_motion_dot": 2.49e-06,
        "meta_mean_motion_ddot": 0,
        "tle_line1": "1 22675U 93036A   25340.46287541  .00000249  00000+0  99745-4 0  9996",
        "tle_line2": "2 22675  74.0393 327.3529 0023768  51.5868 308.7413 14.33201878696835"
      },
      "geometry": {
        "type": "Point",
        "coordinates": [
          -46.95524056594451,
          -39.06175499541912
        ]
      }
    },
    {
      "type": "Feature",
      "properties": {
        "norad_id": 33757,
        "name": "COSMOS 2251 DEB",
        "group": "cosmos-2251-debris",
        "lat": 10.74078224747427,
        "lon": -22.695218013843544,
        "alt_km": 774.308240216209,
        "timestamp": "2025-12-06T22:38:43.121419+00:00",
        "meta_object_name": "COSMOS 2251 DEB",
        "meta_object_id": "1993-036E",
        "meta_epoch": "2025-12-06T11:36:05.298624",
        "meta_mean_motion": 14.32578596,
        "meta_eccentricity": 0.00150161,
        "meta_inclination": 74.0366,
        "meta_ra_of_asc_node": 335.032,
        "meta_arg_of_pericenter": 349.5029,
        "meta_mean_anomaly": 169.495,
        "meta_ephemeris_type": 0,
        "meta_classification_type": "U",
        "meta_norad_cat_id": 33757,
        "meta_element_set_no": 999,
        "meta_rev_at_epoch": 87906,
        "meta_bstar": 8.556433e-05,
        "meta_mean_motion_dot": 2.06e-06,
        "meta_mean_motion_ddot": 0,
        "tle_line1": "1 33757U 93036E   25340.48339466  .00000206  00000+0  85564-4 0  9992",
        "tle_line2": "2 33757  74.0366 335.0320 0015016 349.5029 169.4950 14.32578596879068"
      },
      "geometry": {
        "type": "Point",
        "coordinates": [
          -22.695218013843544,
          10.74078224747427
        ]
      }
    },
    {
      "type": "Feature",
      "properties": {
        "norad_id": 33758,
        "name": "COSMOS 2251 DEB",
        "group": "cosmos-2251-debris",
        "lat": -70.80873554601995,
        "lon": 170.5779485205146,
        "alt_km": 715.3859717665036,
        "timestamp": "2025-12-06T22:38:43.121434+00:00",
        "meta_object_name": "COSMOS 2251 DEB",
        "meta_object_id": "1993-036F",
        "meta_epoch": "2025-12-06T10:35:31.074432",
        "meta_mean_motion": 14.51535918,
        "meta_eccentricity": 0.00175334,
        "meta_inclination": 74.0283,
        "meta_ra_of_asc_node": 226.8924,
        "meta_arg_of_pericenter": 294.1122,
        "meta_mean_anomaly": 243.4054,
        "meta_ephemeris_type": 0,
        "meta_classification_type": "U",
        "meta_norad_cat_id": 33758,
        "meta_element_set_no": 999,
        "meta_rev_at_epoch": 88213,
        "meta_bstar": 0.0015838793,
        "meta_mean_motion_dot": 6.326e-05,
        "meta_mean_motion_ddot": 0,
        "tle_line1": "1 33758U 93036F   25340.44133188  .00006326  00000+0  15839-2 0  9997",
        "tle_line2": "2 33758  74.0283 226.8924 0017533 294.1122 243.4054 14.51535918882131"
      },
      "geometry": {
        "type": "Point",
        "coordinates": [
          170.5779485205146,
          -70.80873554601995
        ]
      }
    },
    {
      "type": "Feature",
      "properties": {
        "norad_id": 33760,
        "name": "COSMOS 2251 DEB",
        "group": "cosmos-2251-debris",
        "lat": -13.690609277841844,
        "lon": 116.093652027686,
        "alt_km": 790.4109496509982,
        "timestamp": "2025-12-06T22:38:43.121447+00:00",
        "meta_object_name": "COSMOS 2251 DEB",
        "meta_object_id": "1993-036H",
        "meta_epoch": "2025-12-06T13:55:39.254880",
        "meta_mean_motion": 14.35666131,
        "meta_eccentricity": 0.00196234,
        "meta_inclination": 74.0318,
        "meta_ra_of_asc_node": 292.7604,
        "meta_arg_of_pericenter": 32.8312,
        "meta_mean_anomaly": 84.6267,
        "meta_ephemeris_type": 0,
        "meta_classification_type": "U",
        "meta_norad_cat_id": 33760,
        "meta_element_set_no": 999,
        "meta_rev_at_epoch": 88036,
        "meta_bstar": 0.00021786915,
        "meta_mean_motion_dot": 6.04e-06,
        "meta_mean_motion_ddot": 0,
        "tle_line1": "1 33760U 93036H   25340.58031545  .00000604  00000+0  21787-3 0  9992",
        "tle_line2": "2 33760  74.0318 292.7604 0019623  32.8312  84.6267 14.35666131880368"
      },
      "geometry": {
        "type": "Point",
        "coordinates": [
          116.093652027686,
          -13.690609277841844
        ]
      }
    },
    {
      "type": "Feature",
      "properties": {
        "norad_id": 33761,
        "name": "COSMOS 2251 DEB",
        "group": "cosmos-2251-debris",
        "lat": -19.493472341899505,
        "lon": -102.89786422553318,
        "alt_km": 738.7473315306524,
        "timestamp": "2025-12-06T22:38:43.121459+00:00",
        "meta_object_name": "COSMOS 2251 DEB",
        "meta_object_id": "1993-036J",
        "meta_epoch": "2025-12-04T21:04:01.127712",
        "meta_mean_motion": 14.42504735,
        "meta_eccentricity": 0.0022795,
        "meta_inclination": 74.037,
        "meta_ra_of_asc_node": 266.7483,
        "meta_arg_of_pericenter": 348.175,
        "meta_mean_anomaly": 68.3837,
        "meta_ephemeris_type": 0,
        "meta_classification_type": "U",
        "meta_norad_cat_id": 33761,
        "meta_element_set_no": 999,
        "meta_rev_at_epoch": 88121,
        "meta_bstar": 0.0010906,
        "meta_mean_motion_dot": 3.601e-05,
        "meta_mean_motion_ddot": 0,
        "tle_line1": "1 33761U 93036J   25338.87779083  .00003601  00000+0  10906-2 0  9998",
        "tle_line2": "2 33761  74.0370 266.7483 0022795 348.1750  68.3837 14.42504735881212"
      },
      "geometry": {
        "type": "Point",
        "coordinates": [
          -102.89786422553318,
          -19.493472341899505
        ]
      }
    },
    {
      "type": "Feature",
      "properties": {
        "norad_id": 33762,
        "name": "COSMOS 2251 DEB",
        "group": "cosmos-2251-debris",
        "lat": 5.698913769354891,
        "lon": 138.98826304390408,
        "alt_km": 790.5054324375342,
        "timestamp": "2025-12-06T22:38:43.121471+00:00",
        "meta_object_name": "COSMOS 2251 DEB",
        "meta_object_id": "1993-036K",
        "meta_epoch": "2025-12-06T09:08:19.193280",
        "meta_mean_motion": 14.33660717,
        "meta_eccentricity": 0.00147464,
        "meta_inclination": 74.0413,
        "meta_ra_of_asc_node": 321.6531,
        "meta_arg_of_pericenter": 24.9914,
        "meta_mean_anomaly": 125.456,
        "meta_ephemeris_type": 0,
        "meta_classification_type": "U",
        "meta_norad_cat_id": 33762,
        "meta_element_set_no": 999,
        "meta_rev_at_epoch": 87956,
        "meta_bstar": 9.8871008e-05,
        "meta_mean_motion_dot": 2.48e-06,
        "meta_mean_motion_ddot": 0,
        "tle_line1": "1 33762U 93036K   25340.38077770  .00000248  00000+0  98871-4 0  9995",
        "tle_line2": "2 33762  74.0413 321.6531 0014746  24.9914 125.4560 14.33660717879560"
      },
      "geometry": {
        "type": "Point",
        "coordinates": [
          138.98826304390408,
          5.698913769354891
        ]
      }
    },
    {
      "type": "Feature",
      "properties": {
        "norad_id": 33764,
        "name": "COSMOS 2251 DEB",
        "group": "cosmos-2251-debris",
        "lat": -11.352557671975122,
        "lon": 106.65496046263237,
        "alt_km": 755.071375029569,
        "timestamp": "2025-12-06T22:38:43.121482+00:00",
        "meta_object_name": "COSMOS 2251 DEB",
        "meta_object_id": "1993-036M",
        "meta_epoch": "2025-12-06T14:13:05.194272",
        "meta_mean_motion": 14.39489513,
        "meta_eccentricity": 0.00241775,
        "meta_inclination": 74.0345,
        "meta_ra_of_asc_node": 284.008,
        "meta_arg_of_pericenter": 250.8218,
        "meta_mean_anomaly": 282.2163,
        "meta_ephemeris_type": 0,
        "meta_classification_type": "U",
        "meta_norad_cat_id": 33764,
        "meta_element_set_no": 999,
        "meta_rev_at_epoch": 88068,
        "meta_bstar": 0.0007233151,
        "meta_mean_motion_dot": 2.236e-05,
        "meta_mean_motion_ddot": 0,
        "tle_line1": "1 33764U 93036M   25340.59242123  .00002236  00000+0  72332-3 0  9998",
        "tle_line2": "2 33764  74.0345 284.0080 0024177 250.8218 282.2163 14.39489513880688"
      },
      "geometry": {
        "type": "Point",
        "coordinates": [
          106.65496046263237,
          -11.352557671975122
        ]
      }
    }
  ]
}